[{"OBJECT_NAME":"STARLINK-30257","OBJECT_ID":"2023-115F","EPOCH":"2025-08-25T07:34:37.255872","MEAN_MOTION":15.02533805,"ECCENTRICITY":0.00013064,"INCLINATION":43.003,"RA_OF_ASC_NODE":351.8852,"ARG_OF_PERICENTER":271.5562,"MEAN_ANOMALY":88.5131,"EPHEMERIS_TYPE":0,"CLASSIFICATION_TYPE":"U","NORAD_CAT_ID":57526,"ELEMENT_SET_NO":999,"REV_AT_EPOCH":11277,"BSTAR":2.7581476e-5,"MEAN_MOTION_DOT":1.69e-6,"MEAN_MOTION_DDOT":0},{"OBJECT_NAME":"STARLINK-30250","OBJECT_ID":"2023-115G","EPOCH":"2025-08-25T09:00:45.526752","MEAN_MOTION":15.02533724,"ECCENTRICITY":0.00013302,"INCLINATION":43.0052,"RA_OF_ASC_NODE":351.448,"ARG_OF_PERICENTER":274.1482,"MEAN_ANOMALY":85.9209,"EPHEMERIS_TYPE":0,"CLASSIFICATION_TYPE":"U","NORAD_CAT_ID":57527,"ELEMENT_SET_NO":999,"REV_AT_EPOCH":11368,"BSTAR":-5.7591898e-5,"MEAN_MOTION_DOT":-9.81e-6,"MEAN_MOTION_DDOT":0},{"OBJECT_NAME":"STARLINK-30269","OBJECT_ID":"2023-115H","EPOCH":"2025-08-25T08:41:34.874016","MEAN_MOTION":15.0253568,"ECCENTRICITY":0.00013231,"INCLINATION":43.0035,"RA_OF_ASC_NODE":351.3742,"ARG_OF_PERICENTER":272.976,"MEAN_ANOMALY":87.0931,"EPHEMERIS_TYPE":0,"CLASSIFICATION_TYPE":"U","NORAD_CAT_ID":57528,"ELEMENT_SET_NO":999,"REV_AT_EPOCH":11278,"BSTAR":-6.52662e-6,"MEAN_MOTION_DOT":-2.92e-6,"MEAN_MOTION_DDOT":0},{"OBJECT_NAME":"STARLINK-30266","OBJECT_ID":"2023-115J","EPOCH":"2025-08-25T08:27:10.178496","MEAN_MOTION":15.02598361,"ECCENTRICITY":0.00013737,"INCLINATION":43.004,"RA_OF_ASC_NODE":351.2804,"ARG_OF_PERICENTER":273.8904,"MEAN_ANOMALY":86.1782,"EPHEMERIS_TYPE":0,"CLASSIFICATION_TYPE":"U","NORAD_CAT_ID":57529,"ELEMENT_SET_NO":999,"REV_AT_EPOCH":11278,"BSTAR":-0.0010331087,"MEAN_MOTION_DOT":-0.00014154,"MEAN_MOTION_DDOT":0},{"OBJECT_NAME":"STARLINK-30270","OBJECT_ID":"2023-115K","EPOCH":"2025-08-25T08:36:47.332224","MEAN_MOTION":15.02532787,"ECCENTRICITY":0.000115,"INCLINATION":43.004,"RA_OF_ASC_NODE":351.3407,"ARG_OF_PERICENTER":270.836,"MEAN_ANOMALY":89.235,"EPHEMERIS_TYPE":0,"CLASSIFICATION_TYPE":"U","NORAD_CAT_ID":57530,"ELEMENT_SET_NO":999,"REV_AT_EPOCH":11278,"BSTAR":-2.7873727e-5,"MEAN_MOTION_DOT":-5.8e-6,"MEAN_MOTION_DDOT":0},{"OBJECT_NAME":"STARLINK-30268","OBJECT_ID":"2023-115L","EPOCH":"2025-08-25T07:20:13.980768","MEAN_MOTION":15.02540381,"ECCENTRICITY":0.0001291,"INCLINATION":43.0046,"RA_OF_ASC_NODE":351.8013,"ARG_OF_PERICENTER":264.4054,"MEAN_ANOMALY":95.6641,"EPHEMERIS_TYPE":0,"CLASSIFICATION_TYPE":"U","NORAD_CAT_ID":57531,"ELEMENT_SET_NO":999,"REV_AT_EPOCH":11277,"BSTAR":1.9596736e-5,"MEAN_MOTION_DOT":6.1e-7,"MEAN_MOTION_DDOT":0},{"OBJECT_NAME":"STARLINK-30251","OBJECT_ID":"2023-115M","EPOCH":"2025-08-25T08:47:57.921504","MEAN_MOTION":15.02550826,"ECCENTRICITY":0.00014267,"INCLINATION":43.0016,"RA_OF_ASC_NODE":351.3828,"ARG_OF_PERICENTER":280.4961,"MEAN_ANOMALY":79.5721,"EPHEMERIS_TYPE":0,"CLASSIFICATION_TYPE":"U","NORAD_CAT_ID":57532,"ELEMENT_SET_NO":999,"REV_AT_EPOCH":11278,"BSTAR":-0.000197512,"MEAN_MOTION_DOT":-2.872e-5,"MEAN_MOTION_DDOT":0},{"OBJECT_NAME":"STARLINK-30254","OBJECT_ID":"2023-115N","EPOCH":"2025-08-25T02:18:39.052512","MEAN_MOTION":15.27596709,"ECCENTRICITY":0.00016752,"INCLINATION":43.0004,"RA_OF_ASC_NODE":133.4089,"ARG_OF_PERICENTER":151.1068,"MEAN_ANOMALY":208.9877,"EPHEMERIS_TYPE":0,"CLASSIFICATION_TYPE":"U","NORAD_CAT_ID":57533,"ELEMENT_SET_NO":999,"REV_AT_EPOCH":11529,"BSTAR":-0.00014693265,"MEAN_MOTION_DOT":-4.305e-5,"MEAN_MOTION_DDOT":0},{"OBJECT_NAME":"STARLINK-30264","OBJECT_ID":"2023-115P","EPOCH":"2025-08-25T08:56:56.616000","MEAN_MOTION":15.25887219,"ECCENTRICITY":0.00011433,"INCLINATION":43.0025,"RA_OF_ASC_NODE":237.4883,"ARG_OF_PERICENTER":274.595,"MEAN_ANOMALY":85.477,"EPHEMERIS_TYPE":0,"CLASSIFICATION_TYPE":"U","NORAD_CAT_ID":57534,"ELEMENT_SET_NO":999,"REV_AT_EPOCH":11533,"BSTAR":-7.3522062e-5,"MEAN_MOTION_DOT":-2.179e-5,"MEAN_MOTION_DDOT":0},{"OBJECT_NAME":"STARLINK-30166","OBJECT_ID":"2023-119A","EPOCH":"2025-08-25T12:38:32.769024","MEAN_MOTION":15.02540617,"ECCENTRICITY":0.0001227,"INCLINATION":43.0036,"RA_OF_ASC_NODE":67.8717,"ARG_OF_PERICENTER":260.3354,"MEAN_ANOMALY":99.735,"EPHEMERIS_TYPE":0,"CLASSIFICATION_TYPE":"U","NORAD_CAT_ID":57602,"ELEMENT_SET_NO":999,"REV_AT_EPOCH":11351,"BSTAR":5.7372264e-5,"MEAN_MOTION_DOT":5.72e-6,"MEAN_MOTION_DDOT":0},{"OBJECT_NAME":"STARLINK-30223","OBJECT_ID":"2023-119B","EPOCH":"2025-08-24T23:23:57.763968","MEAN_MOTION":15.02535387,"ECCENTRICITY":0.00011173,"INCLINATION":43.0033,"RA_OF_ASC_NODE":70.6019,"ARG_OF_PERICENTER":263.8369,"MEAN_ANOMALY":96.2346,"EPHEMERIS_TYPE":0,"CLASSIFICATION_TYPE":"U","NORAD_CAT_ID":57603,"ELEMENT_SET_NO":999,"REV_AT_EPOCH":11348,"BSTAR":2.1334881e-5,"MEAN_MOTION_DOT":8.5e-7,"MEAN_MOTION_DDOT":0},{"OBJECT_NAME":"STARLINK-30218","OBJECT_ID":"2023-119C","EPOCH":"2025-08-25T12:19:22.429920","MEAN_MOTION":15.02535344,"ECCENTRICITY":0.00011952,"INCLINATION":43.0037,"RA_OF_ASC_NODE":67.7706,"ARG_OF_PERICENTER":256.4903,"MEAN_ANOMALY":103.5807,"EPHEMERIS_TYPE":0,"CLASSIFICATION_TYPE":"U","NORAD_CAT_ID":57604,"ELEMENT_SET_NO":999,"REV_AT_EPOCH":11357,"BSTAR":2.2454177e-5,"MEAN_MOTION_DOT":1.0e-6,"MEAN_MOTION_DDOT":0},{"OBJECT_NAME":"STARLINK-30138","OBJECT_ID":"2023-119D","EPOCH":"2025-08-25T12:14:36.451968","MEAN_MOTION":15.02523932,"ECCENTRICITY":0.00011841,"INCLINATION":43.0044,"RA_OF_ASC_NODE":67.7466,"ARG_OF_PERICENTER":260.1291,"MEAN_ANOMALY":99.9418,"EPHEMERIS_TYPE":0,"CLASSIFICATION_TYPE":"U","NORAD_CAT_ID":57605,"ELEMENT_SET_NO":999,"REV_AT_EPOCH":11357,"BSTAR":0.00016456479,"MEAN_MOTION_DOT":2.019e-5,"MEAN_MOTION_DDOT":0},{"OBJECT_NAME":"STARLINK-30255","OBJECT_ID":"2023-119E","EPOCH":"2025-08-25T05:14:54.691584","MEAN_MOTION":15.02535334,"ECCENTRICITY":0.00011596,"INCLINATION":43.0033,"RA_OF_ASC_NODE":68.9954,"ARG_OF_PERICENTER":263.4832,"MEAN_ANOMALY":96.5879,"EPHEMERIS_TYPE":0,"CLASSIFICATION_TYPE":"U","NORAD_CAT_ID":57606,"ELEMENT_SET_NO":999,"REV_AT_EPOCH":11353,"BSTAR":-3.821821e-6,"MEAN_MOTION_DOT":-2.55e-6,"MEAN_MOTION_DDOT":0},{"OBJECT_NAME":"STARLINK-30252","OBJECT_ID":"2023-119F","EPOCH":"2025-08-25T12:29:23.476704","MEAN_MOTION":15.025363,"ECCENTRICITY":0.00010763,"INCLINATION":43.004,"RA_OF_ASC_NODE":55.0851,"ARG_OF_PERICENTER":265.878,"MEAN_ANOMALY":94.1939,"EPHEMERIS_TYPE":0,"CLASSIFICATION_TYPE":"U","NORAD_CAT_ID":57607,"ELEMENT_SET_NO":999,"REV_AT_EPOCH":11372,"BSTAR":2.0360802e-5,"MEAN_MOTION_DOT":7.1e-7,"MEAN_MOTION_DDOT":0},{"OBJECT_NAME":"STARLINK-30258","OBJECT_ID":"2023-119G","EPOCH":"2025-08-25T12:01:47.966304","MEAN_MOTION":15.02535744,"ECCENTRICITY":0.00010918,"INCLINATION":43.0033,"RA_OF_ASC_NODE":67.6784,"ARG_OF_PERICENTER":268.9145,"MEAN_ANOMALY":91.1572,"EPHEMERIS_TYPE":0,"CLASSIFICATION_TYPE":"U","NORAD_CAT_ID":57608,"ELEMENT_SET_NO":999,"REV_AT_EPOCH":11357,"BSTAR":1.7787967e-5,"MEAN_MOTION_DOT":3.7e-7,"MEAN_MOTION_DDOT":0}]
