STARLINK-30257          
1 57526U 23115F   25237.31570898  .00000169  00000+0  27581-4 0  9999
2 57526  43.0030 351.8852 0001306 271.5562  88.5131 15.02533805112773
STARLINK-30250          
1 57527U 23115G   25237.37552693 -.00000981  00000+0 -57592-4 0  9998
2 57527  43.0052 351.4480 0001330 274.1482  85.9209 15.02533724113686
STARLINK-30269          
1 57528U 23115H   25237.36220919 -.00000292  00000+0 -65266-5 0  9994
2 57528  43.0035 351.3742 0001323 272.9760  87.0931 15.02535680112783
STARLINK-30266          
1 57529U 23115J   25237.35220114 -.00014154  00000+0 -10331-2 0  9993
2 57529  43.0040 351.2804 0001373 273.8904  86.1782 15.02598361112782
STARLINK-30270          
1 57530U 23115K   25237.35888116 -.00000580  00000+0 -27874-4 0  9997
2 57530  43.0040 351.3407 0001150 270.8360  89.2350 15.02532787112785
STARLINK-30268          
1 57531U 23115L   25237.30571737  .00000061  00000+0  19597-4 0  9996
2 57531  43.0046 351.8013 0001291 264.4054  95.6641 15.02540381112777
STARLINK-30251          
1 57532U 23115M   25237.36664261 -.00002872  00000+0 -19751-3 0  9993
2 57532  43.0016 351.3828 0001426 280.4961  79.5721 15.02550826112785
STARLINK-30254          
1 57533U 23115N   25237.09628533 -.00004305  00000+0 -14693-3 0  9999
2 57533  43.0004 133.4089 0001675 151.1068 208.9877 15.27596709115295
STARLINK-30264          
1 57534U 23115P   25237.37287750 -.00002179  00000+0 -73522-4 0  9997
2 57534  43.0025 237.4883 0001143 274.5950  85.4770 15.25887219115338
STARLINK-30166          
1 57602U 23119A   25237.52676816  .00000572  00000+0  57372-4 0  9997
2 57602  43.0036  67.8717 0001227 260.3354  99.7350 15.02540617113514
STARLINK-30223          
1 57603U 23119B   25236.97497412  .00000085  00000+0  21335-4 0  9998
2 57603  43.0033  70.6019 0001117 263.8369  96.2346 15.02535387113482
STARLINK-30218          
1 57604U 23119C   25237.51345405  .00000100  00000+0  22454-4 0  9995
2 57604  43.0037  67.7706 0001195 256.4903 103.5807 15.02535344113572
STARLINK-30138          
1 57605U 23119D   25237.51014412  .00002019  00000+0  16456-3 0  9992
2 57605  43.0044  67.7466 0001184 260.1291  99.9418 15.02523932113570
STARLINK-30255          
1 57606U 23119E   25237.21868856 -.00000255  00000+0 -38218-5 0  9993
2 57606  43.0033  68.9954 0001159 263.4832  96.5879 15.02535334113532
STARLINK-30252          
1 57607U 23119F   25237.52041061  .00000071  00000+0  20361-4 0  9992
2 57607  43.0040  55.0851 0001076 265.8780  94.1939 15.02536300113726
STARLINK-30258          
1 57608U 23119G   25237.50124961  .00000037  00000+0  17788-4 0  9993
2 57608  43.0033  67.6784 0001091 268.9145  91.1572 15.02535744113573
